#dP2019 11 20  0  0  0.00000000      96 __u+U ITR00 FIT  IAC
## 2080 259200.00000000   900.00000000 58807 0.0000000000000
+  105   C06C07C08C09C10C11C13C14C16C18C19C20C21C22C23C24C25
+        C26C27C28C29C30C32C33C34C35C36C37E01E02E03E04E05E07
+        E08E09E11E12E13E14E15E18E19E21E24E25E26E27E30E31E33
+        E36G01G02G03G04G05G06G07G08G09G10G11G12G13G14G15G16
+        G17G18G19G20G21G22G23G24G25G26G27G28G29G30G31G32R01
+        R02R03R05R07R08R09R11R12R13R14R15R16R17R18R19R20R21
+        R23R24R26  0  0  0  0  0  0  0  0  0  0  0  0  0  0
++         8  8  8  8  8  7  8  8  8  0  8  8  8  8  7  8  8
++         8  7  7  7  7  8  8  8  8  8  8  4  5  5  4  4  4
++         5  4  5  4  4  5  4  4  4  4  4  5  4  4  4  4  4
++         5  3  4  3  4  3  3  3  3  3  4  4  3  4  4  4  3
++         3  4  3  4  3  3  3  4  3  3  3  3  3  4  3  4  6
++         5  5  5  5  5  5  5  5  6  5  5  6  5  5  6  6  5
++         5  6  8  0  0  0  0  0  0  0  0  0  0  0  0  0  0
%c M  cc GPS ccc cccc cccc cccc cccc ccccc ccccc ccccc ccccc
%c cc cc ccc ccc cccc cccc cccc cccc ccccc ccccc ccccc ccccc
%f  0.0000000  0.000000000  0.00000000000  0.000000000000000
%f  0.0000000  0.000000000  0.00000000000  0.000000000000000
%i    0    0    0    0      0      0      0      0         0
%i    0    0    0    0      0      0      0      0         0
/* INFORMATION & ANALYSIS CENTER (IAC)      ULTRA-RAPID DATA
/* S/V CLOCKS ARE ALIGNED TO GNSS TIME                      
/* G:C1WC2W R:C1PC2P E:C1XC5X C:C2IC6I J:C1CC2S             
/* PCV:IGS14_2076 OL/AL:FES2004  NONE     YN ORB:CoN CLK:CoN
*  2019 11 20 14 15  0.00000000
PC06 -12143.006762  37128.159767 -15010.597263    312.466625
PC07 -12775.974982  22825.537837  33251.211997   -276.361541
PC08 -26169.492675  27482.700273 -18643.508297    -37.420065
PC09  -2227.103732  41887.080896   1380.607929    129.659693
PC10   4135.853752  29103.991828  30536.120379   -384.534240
PC11 -16331.351276    731.468183  22689.403117    -13.423160
PC13 -11162.438579  28519.122829 -29042.890171    115.850739
PC14 -21418.538070  -8852.180958 -15485.927127    407.879886
PC16  -9810.213593  38828.202433 -12856.127150   -925.412089
PC18      0.000000      0.000000      0.000000 999999.999999
PC19  18610.720711   -303.654126  20810.620009    249.929517
PC20  21071.387565  16341.250526   8281.937241   -314.814421
PC21 -11003.001716 -23786.565191   9567.306174    168.520986
PC22   5321.371769 -17043.320873  21434.836404   -394.996255
PC23 -15722.788788  14962.627995  17551.150899   -877.786600
PC24 -22631.368096  -7097.333307 -14722.582857   -879.708080
PC25 -27053.948194   6492.529208   2294.115417   -420.417542
PC26  -5892.731090 -15199.658552 -22651.722351    467.346552
PC27     87.864336  24536.741508 -13289.917756    228.436059
PC28 -12718.728147  24541.870196   3894.441604    219.543225
PC29  17633.888773 -10886.113170 -18688.698478    148.720039
PC30  13060.265902   9937.347148 -22564.500101    227.404846
PC32  11188.710821  23716.373989  -9548.515210   -865.821630
PC33 -18646.615332    353.843017 -20756.923025 999999.999999
PC34 -13227.078457  -9666.869053  22592.820557   -248.571254
PC35  11941.988430 -24922.778620  -3970.009391   -573.258399
PC36  27234.234421  -5718.926079  -2080.398289   -901.440046
PC37   4846.830845  15484.365403  22727.864211   -778.756364
PE01 -10034.419385 -17483.204743 -21668.200557   -735.789197
PE02  10095.427721  17484.661788  21647.999718     93.211677
PE03   7506.348099  28638.057122   -451.447804   -235.110955
PE04 -17059.573890 -17570.767601 -16627.864736   -409.454085
PE05  -6545.300037  23015.422398 -17433.241105   -429.653562
PE07  16687.057032  -3968.499469  24122.632359   -301.790745
PE08  17131.188974  17333.645379  16804.705515   6260.486775
PE09 -16494.128004   4150.411745 -24228.810129   6246.809522
PE11 -23686.221056  12043.232881  13035.195236 999999.999999
PE12 -15794.335733  -6650.879331  24139.309483   6090.621377
PE13  23587.143100 -12054.193951 -13196.424950    395.571048
PE14 -11637.954840 -13345.424213  15751.226267   -801.318002
PE15  15964.389514   6253.389916 -24117.227794    887.159294
PE18  18816.470680  10626.157858 -24257.887615   -896.443402
PE19  -6153.986836 -28847.981168   2474.949557     -2.819622
PE21  12043.518392 -13089.106823 -23654.998432   -566.943106
PE24 -27159.027661    894.710956  11757.789487   5757.402433
PE25 -12138.493402  13055.464222  23642.082379   -496.289123
PE26  17389.792967 -23266.374669   5665.396644   3855.325440
PE27  27159.072472   -981.272070 -11715.128562    341.744643
PE30  26193.636122  11824.821088   7063.586346   4369.433772
PE31 -26287.796074 -11640.504506  -7028.642534   -470.572713
PE33   1020.472833 -20919.562374  20923.757704   -471.743942
PE36 -17397.737892  23317.286820  -5468.622087    634.421962
PG01  -5724.005512  17533.743932 -19190.460827   -203.587490
PG02  21694.676400 -15125.472702   2163.676998   -350.578932
PG03   6390.499846  18689.975352 -17858.622172    -39.636347
PG04   6821.008408  22693.170569  11986.620264    -11.114227
PG05  14017.792634  -8848.128797  20652.422244     -3.691912
PG06  23849.400007  -4373.805441 -10826.861482   -129.555821
PG07  11832.594239  10997.481021  21433.125449   -152.859678
PG08  -6078.734872  24472.545214   8007.765577    -14.015107
PG09   7924.862606  22360.067776  11880.670360    -88.189052
PG10 -23859.478696 -10772.961278  -5086.181801   -141.903817
PG11  -4290.211316  23138.443263 -13112.942259   -442.602065
PG12   -326.373188 -17228.102381 -20478.256288    181.553325
PG13  12771.947882 -18535.140330  13918.448686    -31.666770
PG14 -15218.896246   5719.658875 -20643.131815    -49.419893
PG15   3490.723848 -25172.366949   6696.839025   -271.322446
PG16 -15957.618931   5130.273664  20520.638302    -95.029163
PG17  13663.918629   6554.742321 -21398.375974    166.417182
PG18 -13095.644647  18977.587727 -13603.120022    101.419082
PG19  15114.113181  -1698.777772 -22069.998724   -237.191923
PG20 -21620.659346 -14558.522090   5511.694536    527.503273
PG21 -14923.679879  -8465.139869  21019.921639    -83.151503
PG22  -1386.614470  16585.435381 -20498.925309   -772.894492
PG23   1878.315985  26127.562393   3197.361085   -154.409857
PG24   6987.112548 -18954.019488 -17236.403679     -5.153843
PG25 -14869.081793 -18945.196471 -11702.599410    -17.272784
PG26 -22258.394104   -981.771083  14591.366820     88.385403
PG27 -12139.351493  15944.668423  17155.274307   -125.798481
PG28  22514.622425  12514.662280  -5596.261891    754.270590
PG29  -5029.378040 -23482.484665  11289.399801     39.272307
PG30  20950.849537   3066.714005  16183.832373    -88.070827
PG31 -24792.538280   5526.340850  -8547.574652     -4.468980
PG32 -14825.469291  -5624.270275 -21264.647485    130.955553
PR01 -10515.382087 -22796.042248   4476.657273     52.951827
PR02 -15468.612549 -13173.287277 -15429.475968    398.644877
PR03 -10304.620809   3995.389760 -22959.275275      5.145121
PR05  11442.405062  22709.397796  -1846.968169     39.754170
PR07   9993.731126  -4626.898724  23033.971836    -29.682430
PR08   -734.528790 -18662.402514  17424.508402     14.311642
PR09  25053.172964   2603.759487   4265.360748    102.081306
PR11   7566.820761 -10468.463601 -21984.075259     19.351990
PR12 -11026.703516 -10000.385765 -20688.479434     80.879007
PR13 -24217.140615  -3646.504217  -7143.222245    -31.228197
PR14 -22851.204853   4459.857738  10424.104429     45.260170
PR15  -8467.620117  10146.649526  21843.345929    104.822345
PR16  11383.105911   9918.759835  20506.736872      0.164022
PR17 -16122.750819  14362.919538  13630.200590    277.371226
PR18 -12190.358847  22194.928444  -2846.450237     15.162125
PR19  -2391.198144  18223.636347 -17689.272858    -64.912323
PR20  10751.726968   2311.228788 -23007.880988   -396.705779
PR21  16085.009047 -14920.288222 -12978.551564    -86.470780
PR23  -2267.425952 -14243.938280  21032.921697    268.025784
PR24 -11903.326691    -27.255640  22538.391245 999999.999999
PR26   8721.548073   5757.271019 -23254.391662      9.896525
EOF
